HELIOS 2A               
1 28492U 04049A   23067.55500853  .00004235  00000+0  40039-3 0  9993
2 28492  98.2681  28.5307 0013056 299.3682  60.6348 14.94218276974540
SPIRALE A               
1 33751U 09008C   23066.41806346  .00000583  00000+0  18544-2 0  9994
2 33751   2.0915   6.7792 5471282  22.4952 354.3099  4.58945368206892
SPIRALE B               
1 33752U 09008D   23066.56707513  .00006327  00000+0  20102-2 0  9992
2 33752   2.2238 337.5236 6841810  70.2147 347.7926  2.84054664132538
SAPPHIRE                
1 39088U 13009C   23067.24378442  .00000480  00000+0  18565-3 0  9992
2 39088  98.4176 261.2756 0010775 207.5020 152.5596 14.34403297524955
